GLOBALSTAR M057 [-]     
1 25943U 99058A   24085.51636673 -.00000049  00000+0  40148-3 0  9993
2 25943  51.9974 181.4794 0002987 159.0565 201.0407 12.24782343111958
GLOBALSTAR M059 [-]     
1 25944U 99058B   24085.87083771 -.00000140  00000+0 -66480-3 0  9998
2 25944  52.0051 339.9918 0000845 100.9135 337.9882 11.99961823520227
GLOBALSTAR M056 [-]     
1 25945U 99058C   24086.18741167 -.00000081  00000+0  78184-4 0  9992
2 25945  51.9998 352.6017 0001450  25.7745 140.8482 12.04772764108671
GLOBALSTAR M031 [-]     
1 25946U 99058D   24085.76691697 -.00000116  00000+0 -26218-3 0  9998
2 25946  51.9948 272.9109 0001412  24.7280 348.1244 12.16004555109998
GLOBALSTAR M039 [-]     
1 25961U 99062A   24085.68150832 -.00000062  00000+0  23404-3 0  9995
2 25961  51.9838 194.7302 0003287  82.7285 277.3955 12.62285279123577
GLOBALSTAR M034 [-]     
1 25962U 99062B   24085.73967332 -.00000028  00000+0  84188-3 0  9991
2 25962  51.9857  97.0672 0013962 273.9977 257.6345 11.79426014 85478
GLOBALSTAR M029 [-]     
1 25963U 99062C   24085.66758025 -.00000074  00000+0  14694-3 0  9997
2 25963  51.9787 228.9617 0001855 326.8784  46.3114 11.99875662115286
GLOBALSTAR M061 [-]     
1 25964U 99062D   24085.79344337 -.00000086  00000+0 -98048-4 0  9999
2 25964  51.9784 275.0238 0005863 194.0044 178.9985 11.76758846 68399
